{
  "type": "FeatureCollection",
  "features": [
    {
      "type": "Feature",
      "properties": {
        "norad_id": 42989,
        "name": "SKYSAT-C9",
        "group": "resource",
        "lat": 1.8820417567286396,
        "lon": -51.54839123450079,
        "alt_km": 464.0236561926022,
        "timestamp": "2025-12-23T20:42:36.730070+00:00",
        "meta_object_name": "SKYSAT-C9",
        "meta_object_id": "2017-068C",
        "meta_epoch": "2025-12-23T07:25:59.531520",
        "meta_mean_motion": 15.36305474,
        "meta_eccentricity": 0.00103605,
        "meta_inclination": 97.4198,
        "meta_ra_of_asc_node": 127.6485,
        "meta_arg_of_pericenter": 53.9545,
        "meta_mean_anomaly": 306.2657,
        "meta_ephemeris_type": 0,
        "meta_classification_type": "U",
        "meta_norad_cat_id": 42989,
        "meta_element_set_no": 999,
        "meta_rev_at_epoch": 45570,
        "meta_bstar": 0.00038551352,
        "meta_mean_motion_dot": 0.00013595,
        "meta_mean_motion_ddot": 0,
        "tle_line1": "1 42989U 17068C   25357.30971680  .00013595  00000+0  38551-3 0  9997",
        "tle_line2": "2 42989  97.4198 127.6485 0010360  53.9545 306.2657 15.36305474455704"
      },
      "geometry": {
        "type": "Point",
        "coordinates": [
          -51.54839123450079,
          1.8820417567286396
        ]
      }
    },
    {
      "type": "Feature",
      "properties": {
        "norad_id": 42990,
        "name": "SKYSAT-C8",
        "group": "resource",
        "lat": 22.565638550469814,
        "lon": 124.80509910411676,
        "alt_km": 466.271569411625,
        "timestamp": "2025-12-23T20:42:36.730081+00:00",
        "meta_object_name": "SKYSAT-C8",
        "meta_object_id": "2017-068D",
        "meta_epoch": "2025-12-22T22:40:52.727808",
        "meta_mean_motion": 15.33134527,
        "meta_eccentricity": 0.00010062,
        "meta_inclination": 97.429,
        "meta_ra_of_asc_node": 126.9913,
        "meta_arg_of_pericenter": 287.2587,
        "meta_mean_anomaly": 72.8545,
        "meta_ephemeris_type": 0,
        "meta_classification_type": "U",
        "meta_norad_cat_id": 42990,
        "meta_element_set_no": 999,
        "meta_rev_at_epoch": 45527,
        "meta_bstar": 0.00038454262,
        "meta_mean_motion_dot": 0.00012237,
        "meta_mean_motion_ddot": 0,
        "tle_line1": "1 42990U 17068D   25356.94505472  .00012237  00000+0  38454-3 0  9994",
        "tle_line2": "2 42990  97.4290 126.9913 0001006 287.2587  72.8545 15.33134527455272"
      },
      "geometry": {
        "type": "Point",
        "coordinates": [
          124.80509910411676,
          22.565638550469814
        ]
      }
    },
    {
      "type": "Feature",
      "properties": {
        "norad_id": 42991,
        "name": "SKYSAT-C7",
        "group": "resource",
        "lat": -34.09906645930252,
        "lon": -56.12325423607651,
        "alt_km": 479.1494252065213,
        "timestamp": "2025-12-23T20:42:36.730091+00:00",
        "meta_object_name": "SKYSAT-C7",
        "meta_object_id": "2017-068E",
        "meta_epoch": "2025-12-23T04:06:27.213120",
        "meta_mean_motion": 15.32536549,
        "meta_eccentricity": 0.00069643,
        "meta_inclination": 97.4295,
        "meta_ra_of_asc_node": 128.2509,
        "meta_arg_of_pericenter": 24.3723,
        "meta_mean_anomaly": 335.7847,
        "meta_ephemeris_type": 0,
        "meta_classification_type": "U",
        "meta_norad_cat_id": 42991,
        "meta_element_set_no": 999,
        "meta_rev_at_epoch": 45537,
        "meta_bstar": 0.00037649309,
        "meta_mean_motion_dot": 0.00011763,
        "meta_mean_motion_ddot": 0,
        "tle_line1": "1 42991U 17068E   25357.17114830  .00011763  00000+0  37649-3 0  9993",
        "tle_line2": "2 42991  97.4295 128.2509 0006964  24.3723 335.7847 15.32536549455370"
      },
      "geometry": {
        "type": "Point",
        "coordinates": [
          -56.12325423607651,
          -34.09906645930252
        ]
      }
    },
    {
      "type": "Feature",
      "properties": {
        "norad_id": 42992,
        "name": "SKYSAT-C6",
        "group": "resource",
        "lat": -61.552296770767605,
        "lon": 143.31883863138623,
        "alt_km": 479.28270690906993,
        "timestamp": "2025-12-23T20:42:36.730102+00:00",
        "meta_object_name": "SKYSAT-C6",
        "meta_object_id": "2017-068F",
        "meta_epoch": "2025-12-23T03:44:08.203200",
        "meta_mean_motion": 15.31692188,
        "meta_eccentricity": 0.00048619,
        "meta_inclination": 97.4329,
        "meta_ra_of_asc_node": 128.6655,
        "meta_arg_of_pericenter": 54.2733,
        "meta_mean_anomaly": 305.896,
        "meta_ephemeris_type": 0,
        "meta_classification_type": "U",
        "meta_norad_cat_id": 42992,
        "meta_element_set_no": 999,
        "meta_rev_at_epoch": 45535,
        "meta_bstar": 0.00035814285,
        "meta_mean_motion_dot": 0.00010889,
        "meta_mean_motion_ddot": 0,
        "tle_line1": "1 42992U 17068F   25357.15565050  .00010889  00000+0  35814-3 0  9996",
        "tle_line2": "2 42992  97.4329 128.6655 0004861  54.2733 305.8960 15.31692188455355"
      },
      "geometry": {
        "type": "Point",
        "coordinates": [
          143.31883863138623,
          -61.552296770767605
        ]
      }
    },
    {
      "type": "Feature",
      "properties": {
        "norad_id": 43111,
        "name": "CARTOSAT-2F",
        "group": "resource",
        "lat": -82.55042286859899,
        "lon": 141.74224670686328,
        "alt_km": 516.5527049591201,
        "timestamp": "2025-12-23T20:42:36.730112+00:00",
        "meta_object_name": "CARTOSAT-2F",
        "meta_object_id": "2018-004A",
        "meta_epoch": "2025-12-23T06:52:37.613280",
        "meta_mean_motion": 15.19220351,
        "meta_eccentricity": 0.00015238,
        "meta_inclination": 97.4301,
        "meta_ra_of_asc_node": 54.7529,
        "meta_arg_of_pericenter": 110.3046,
        "meta_mean_anomaly": 249.8353,
        "meta_ephemeris_type": 0,
        "meta_classification_type": "U",
        "meta_norad_cat_id": 43111,
        "meta_element_set_no": 999,
        "meta_rev_at_epoch": 44062,
        "meta_bstar": 0.00018171167,
        "meta_mean_motion_dot": 3.759e-05,
        "meta_mean_motion_ddot": 0,
        "tle_line1": "1 43111U 18004A   25357.28654645  .00003759  00000+0  18171-3 0  9999",
        "tle_line2": "2 43111  97.4301  54.7529 0001523 110.3046 249.8353 15.19220351440623"
      },
      "geometry": {
        "type": "Point",
        "coordinates": [
          141.74224670686328,
          -82.55042286859899
        ]
      }
    },
    {
      "type": "Feature",
      "properties": {
        "norad_id": 43259,
        "name": "GAOFEN-1 02",
        "group": "resource",
        "lat": 54.148157603132226,
        "lon": -113.00730826511666,
        "alt_km": 634.3749329327547,
        "timestamp": "2025-12-23T20:42:36.730123+00:00",
        "meta_object_name": "GAOFEN-1 02",
        "meta_object_id": "2018-031A",
        "meta_epoch": "2025-12-23T07:08:01.727808",
        "meta_mean_motion": 14.76435417,
        "meta_eccentricity": 0.00024746,
        "meta_inclination": 98.0792,
        "meta_ra_of_asc_node": 55.0901,
        "meta_arg_of_pericenter": 177.0834,
        "meta_mean_anomaly": 183.0391,
        "meta_ephemeris_type": 0,
        "meta_classification_type": "U",
        "meta_norad_cat_id": 43259,
        "meta_element_set_no": 999,
        "meta_rev_at_epoch": 41674,
        "meta_bstar": 0.00012118816,
        "meta_mean_motion_dot": 7.91e-06,
        "meta_mean_motion_ddot": 0,
        "tle_line1": "1 43259U 18031A   25357.29724222  .00000791  00000+0  12119-3 0  9991",
        "tle_line2": "2 43259  98.0792  55.0901 0002474 177.0834 183.0391 14.76435417416746"
      },
      "geometry": {
        "type": "Point",
        "coordinates": [
          -113.00730826511666,
          54.148157603132226
        ]
      }
    },
    {
      "type": "Feature",
      "properties": {
        "norad_id": 43260,
        "name": "GAOFEN-1 03",
        "group": "resource",
        "lat": -60.0867465591768,
        "lon": -138.76081845351703,
        "alt_km": 646.5685894676917,
        "timestamp": "2025-12-23T20:42:36.730133+00:00",
        "meta_object_name": "GAOFEN-1 03",
        "meta_object_id": "2018-031B",
        "meta_epoch": "2025-12-23T06:36:34.742304",
        "meta_mean_motion": 14.76457392,
        "meta_eccentricity": 0.00017023,
        "meta_inclination": 98.0784,
        "meta_ra_of_asc_node": 54.9439,
        "meta_arg_of_pericenter": 265.659,
        "meta_mean_anomaly": 94.4425,
        "meta_ephemeris_type": 0,
        "meta_classification_type": "U",
        "meta_norad_cat_id": 43260,
        "meta_element_set_no": 999,
        "meta_rev_at_epoch": 41673,
        "meta_bstar": 0.00013181271,
        "meta_mean_motion_dot": 8.65e-06,
        "meta_mean_motion_ddot": 0,
        "tle_line1": "1 43260U 18031B   25357.27540211  .00000865  00000+0  13181-3 0  9997",
        "tle_line2": "2 43260  98.0784  54.9439 0001702 265.6590  94.4425 14.76457392416737"
      },
      "geometry": {
        "type": "Point",
        "coordinates": [
          -138.76081845351703,
          -60.0867465591768
        ]
      }
    }
  ]
}